Coordinates
version=1
nRows=133
nColumns=40
inDegrees=yes

Units are S.I. units (second, meters, Newtons, ...)
If the header above contains a line with 'inDegrees', this indicates whether rotational values are in degrees (yes) or radians (no).

endheader
time	pelvis_tilt	pelvis_list	pelvis_rotation	pelvis_tx	pelvis_ty	pelvis_tz	hip_flexion_r	hip_adduction_r	hip_rotation_r	knee_angle_r	knee_angle_r_beta	ankle_angle_r	subtalar_angle_r	mtp_angle_r	hip_flexion_l	hip_adduction_l	hip_rotation_l	knee_angle_l	knee_angle_l_beta	ankle_angle_l	subtalar_angle_l	mtp_angle_l	lumbar_extension	lumbar_bending	lumbar_rotation	arm_flex_r	arm_add_r	arm_rot_r	elbow_flex_r	pro_sup_r	wrist_flex_r	wrist_dev_r	arm_flex_l	arm_add_l	arm_rot_l	elbow_flex_l	pro_sup_l	wrist_flex_l	wrist_dev_l
      8.61000000	      1.48677162	     -1.86108825	     -4.73619980	     -0.32114740	      0.96749809	      0.01987588	    -11.96794413	      3.67517064	     -1.29307442	      6.88277815	      0.12012714	     10.03575197	      0.00000000	     -7.47097587	     21.49586762	     -5.87635908	    -17.82577715	      4.60962660	      0.08045316	     -3.15929857	     -3.45708539	     -7.47097587	     -9.32665196	      1.36751341	      6.13942594	     -7.93981119	      3.75811590	    -33.32981466	     49.55552200	     67.43196484	      0.00000000	      0.00000000	    -14.09498729	      6.02890751	    -20.28254769	     34.79146038	     66.17024890	      0.00000000	      0.00000000
      8.62000000	      1.41791906	     -1.92223211	     -4.86170552	     -0.31280898	      0.96621367	      0.01941428	    -12.32372461	      3.62614761	     -1.27744501	      7.11278995	      0.12414160	     10.01943074	      0.00000000	     -7.47111936	     21.82198620	     -5.94103631	    -17.74385180	      4.74626532	      0.08283796	     -3.15323261	     -3.43783162	     -7.47111936	     -9.25183289	      1.33488312	      6.11622319	     -7.95940127	      3.77014007	    -33.32990711	     49.57576846	     67.41943954	      0.00000000	      0.00000000	    -14.07291788	      6.03692422	    -20.27894827	     34.85041977	     66.16508182	      0.00000000	      0.00000000
      8.63000000	      1.38347654	     -1.94992569	     -5.01115039	     -0.30400254	      0.96498913	      0.01888951	    -12.80272870	      3.52368164	     -1.22464559	      7.21204555	      0.12587394	     10.02801027	      0.00000000	     -7.47115052	     21.96846558	     -5.94982132	    -17.67570974	      4.87265200	      0.08504382	     -3.16474196	     -3.42471527	     -7.47115052	     -9.15072231	      1.34714293	      6.10745107	     -7.99802904	      3.79026322	    -33.33114957	     49.55899054	     67.41824323	      0.00000000	      0.00000000	    -14.06056540	      6.04649794	    -20.27650051	     34.85242107	     66.16873791	      0.00000000	      0.00000000
      8.64000000	      1.56687161	     -2.05468433	     -5.05952316	     -0.29528546	      0.96398190	      0.01824963	    -13.54177680	      3.51104366	     -1.05611566	      7.28111470	      0.12707942	     10.19353611	      0.00000000	     -7.47156893	     22.06044490	     -6.05360270	    -17.43681323	      5.59473254	      0.09764650	     -3.25437586	     -3.27926489	     -7.47156893	     -9.39663231	      1.33251193	      6.22563260	     -8.26011316	      3.88266302	    -33.35578612	     49.43154076	     67.40750751	      0.00000000	      0.00000000	    -13.92546853	      6.11202576	    -20.26050552	     34.86197898	     66.21598983	      0.00000000	      0.00000000
      8.65000000	      1.62787079	     -2.06541235	     -5.24012213	     -0.28618376	      0.96288563	      0.01766316	    -14.09555194	      3.33719908	     -1.09007970	      7.51673344	      0.13119175	     10.24114784	      0.00000000	     -7.47171227	     22.12239037	     -6.06284409	    -17.21201854	      6.26398607	      0.10932718	     -3.27746010	     -3.23092632	     -7.47171227	     -9.40144617	      1.24990541	      6.29227143	     -8.37568260	      3.90465821	    -33.37072289	     49.38190496	     67.40312888	      0.00000000	      0.00000000	    -13.93769439	      6.12914961	    -20.26269458	     34.84085060	     66.22974146	      0.00000000	      0.00000000
      8.66000000	      1.68797168	     -2.05378235	     -5.39386113	     -0.27698230	      0.96191200	      0.01697345	    -14.62028106	      3.13981647	     -1.01950719	      7.75325554	      0.13531984	     10.27894067	      0.00000000	     -7.47182794	     22.15804056	     -6.03639338	    -16.93277310	      7.09015176	      0.12374649	     -3.32218351	     -3.19562822	     -7.47182794	     -9.39355065	      1.14082724	      6.34063094	     -8.51276005	      3.93061827	    -33.38642344	     49.32498590	     67.39927133	      0.00000000	      0.00000000	    -13.92573727	      6.14986641	    -20.26140874	     34.82914791	     66.24072598	      0.00000000	      0.00000000
      8.67000000	      1.74535876	     -1.96413319	     -5.55309477	     -0.26762633	      0.96110555	      0.01620788	    -15.12623428	      2.84732266	     -0.93662244	      8.00560689	      0.13972420	     10.30910315	      0.00000000	     -7.47193392	     22.22974085	     -5.92789725	    -16.92178821	      8.17634337	      0.14270411	     -3.43488453	     -3.17431971	     -7.47193392	     -9.32000269	      0.96188025	      6.35865329	     -8.68418055	      3.95542946	    -33.40760284	     49.25490991	     67.39544683	      0.00000000	      0.00000000	    -13.89353168	      6.16352230	    -20.25924358	     34.82275792	     66.25109078	      0.00000000	      0.00000000
      8.68000000	      1.57231188	     -2.04355967	     -5.77729891	     -0.25820910	      0.95998021	      0.01549416	    -15.31136832	      2.72678169	     -0.87116334	      8.41374594	      0.14684757	     10.51234960	      0.00000000	     -7.47278017	     22.55547848	     -6.04350131	    -16.79238412	      9.34779506	      0.16314980	     -4.41420650	     -3.21299307	     -7.47278017	     -9.01297422	      0.95410062	      6.86006458	     -9.19741722	      3.95508621	    -33.48933282	     49.06514010	     67.37631150	      0.00000000	      0.00000000	    -13.57048433	      6.15313018	    -20.26086875	     34.79903278	     66.33999307	      0.00000000	      0.00000000
      8.69000000	      1.60888164	     -1.95739512	     -5.93855985	     -0.24843782	      0.95921187	      0.01462899	    -15.73213980	      2.41866590	     -0.72170934	      8.82107376	      0.15395678	     10.51358026	      0.00000000	     -7.47291225	     22.43282947	     -5.88203654	    -16.66805654	     10.03136827	      0.17508040	     -4.62189221	     -3.23716147	     -7.47291225	     -8.90469286	      0.77756282	      6.83147556	     -9.35055779	      3.98088221	    -33.50947897	     49.01637559	     67.37195490	      0.00000000	      0.00000000	    -13.60832608	      6.15906168	    -20.26696534	     34.75215818	     66.35116979	      0.00000000	      0.00000000
      8.70000000	      1.64724010	     -1.83073318	     -6.17435105	     -0.23856964	      0.95864723	      0.01375078	    -16.09943425	      2.03204014	     -0.57247980	      9.29722652	      0.16226721	     10.49681750	      0.00000000	     -7.47301455	     22.31198248	     -5.70574493	    -16.33590237	     10.67309942	      0.18628073	     -4.84901284	     -3.25290830	     -7.47301455	     -8.78462890	      0.56161191	      6.83040157	     -9.51115894	      4.01456802	    -33.52651675	     48.95623276	     67.36827428	      0.00000000	      0.00000000	    -13.63208007	      6.15308769	    -20.27452437	     34.71849463	     66.35937524	      0.00000000	      0.00000000
      8.71000000	      1.67979200	     -1.70506343	     -6.36823971	     -0.22868933	      0.95826211	      0.01286955	    -16.38248646	      1.66340122	     -0.43055955	      9.89695667	      0.17273448	     10.46340108	      0.00000000	     -7.47311367	     22.11755292	     -5.49438037	    -15.97875407	     11.16177236	      0.19480968	     -5.13084489	     -3.27494848	     -7.47311367	     -8.66089134	      0.33465493	      6.81767275	     -9.70754670	      4.06796530	    -33.54318042	     48.87535591	     67.36405280	      0.00000000	      0.00000000	    -13.62304586	      6.12832118	    -20.28389382	     34.69856463	     66.36764328	      0.00000000	      0.00000000
      8.72000000	      1.70506449	     -1.44667524	     -6.51110729	     -0.21864825	      0.95815204	      0.01194026	    -16.58294874	      1.15950103	     -0.40566643	     10.60894039	      0.18516094	     10.37626476	      0.00000000	     -7.47325313	     21.84564121	     -5.13367331	    -15.85219009	     11.66906030	      0.20366352	     -5.55782056	     -3.32775499	     -7.47325313	     -8.49569966	     -0.03836770	      6.80045988	     -9.96038402	      4.16029019	    -33.55918205	     48.75685270	     67.35886197	      0.00000000	      0.00000000	    -13.55490577	      6.06047125	    -20.29957786	     34.69119678	     66.37984520	      0.00000000	      0.00000000
      8.73000000	      1.77226321	     -1.23841202	     -6.69204192	     -0.20838229	      0.95813568	      0.01086797	    -16.77395599	      0.66868247	     -0.36387052	     11.40792027	      0.19910577	     10.24688376	      0.00000000	     -7.47336344	     21.48855144	     -4.79311390	    -15.30462590	     12.01215613	      0.20965167	     -5.95370161	     -3.37728130	     -7.47336344	     -8.36735963	     -0.31935912	      6.77937449	    -10.21473359	      4.22534560	    -33.58552223	     48.64269392	     67.35351144	      0.00000000	      0.00000000	    -13.48956012	      6.01409645	    -20.31082836	     34.69332944	     66.38799051	      0.00000000	      0.00000000
      8.74000000	      1.86230808	     -0.97040011	     -6.76311539	     -0.19811367	      0.95857514	      0.00970391	    -16.88686065	      0.14372133	     -0.39951250	     12.35852899	      0.21569702	     10.05046564	      0.00000000	     -7.47348775	     21.10082962	     -4.37803228	    -14.77695205	     12.34218054	      0.21541169	     -6.43931779	     -3.48697031	     -7.47348775	     -8.24963881	     -0.72058205	      6.72266299	    -10.49041915	      4.31531677	    -33.61204072	     48.50682986	     67.34719746	      0.00000000	      0.00000000	    -13.37526540	      5.94393207	    -20.32346949	     34.70824001	     66.39787598	      0.00000000	      0.00000000
      8.75000000	      1.94315400	     -0.57369876	     -6.76356641	     -0.18775819	      0.95912888	      0.00829954	    -16.91408936	     -0.53591607	     -0.76851629	     13.39853014	      0.23384847	      8.24213167	      0.00000000	     -7.47652449	     20.79629665	     -3.79474311	    -13.77629063	     12.86816323	      0.22459182	    -11.64916514	     -8.12527981	     -7.47652449	     -8.06702422	     -1.25196133	      6.92691569	    -10.82820585	      4.55990590	    -33.94625414	     48.06585945	     67.24799989	      0.00000000	      0.00000000	    -12.84205597	      5.72390054	    -20.46566720	     34.08545071	     66.62102365	      0.00000000	      0.00000000
      8.76000000	      1.98795427	     -0.26347471	     -6.84901093	     -0.17743960	      0.95980607	      0.00711516	    -16.70003788	     -1.10288307	     -0.78308282	     14.80591960	      0.25841205	      8.04776220	      0.00000000	     -7.47680255	     20.38892308	     -3.42699305	    -13.92455308	     13.33494781	      0.23273874	    -11.57146181	     -8.28086999	     -7.47680255	     -7.87765295	     -1.67596249	      6.81639730	    -11.02709262	      4.64676094	    -33.99067513	     47.95928836	     67.23880652	      0.00000000	      0.00000000	    -12.65523387	      5.67795969	    -20.46797236	     34.13326155	     66.65042915	      0.00000000	      0.00000000
      8.77000000	      2.08409063	      0.06254794	     -6.91259372	     -0.16714869	      0.96081691	      0.00576459	    -16.40768001	     -1.72613997	     -0.96868518	     16.33783215	      0.28514896	      7.05872053	      0.00000000	     -7.47780875	     19.99377125	     -3.00066882	    -13.83187433	     13.99915020	      0.24433126	    -10.99080404	     -8.97358182	     -7.47780875	     -7.77723107	     -2.12025509	      6.84461345	    -11.36617718	      4.78993252	    -34.17812366	     47.67416108	     67.20508441	      0.00000000	      0.00000000	    -12.42474274	      5.56170312	    -20.52197460	     34.13935006	     66.74505298	      0.00000000	      0.00000000
      8.78000000	      2.37565645	      0.29301794	     -6.89381306	     -0.15705116	      0.96219178	      0.00437862	    -16.21552031	     -2.17957851	     -0.90604398	     18.03889755	      0.31483816	      6.87858234	      0.00000000	     -7.47789181	     19.33333687	     -2.61194050	    -13.80774794	     14.55412313	      0.25401737	    -10.95784078	     -8.99878853	     -7.47789181	     -7.96153063	     -2.42517994	      6.49630861	    -11.62034414	      4.84490040	    -34.22876656	     47.57439245	     67.19764908	      0.00000000	      0.00000000	    -12.29610328	      5.52782007	    -20.51849420	     34.17267107	     66.75551254	      0.00000000	      0.00000000
      8.79000000	      2.32541382	      0.69897843	     -7.03762020	     -0.14685222	      0.96348686	      0.00314903	    -15.31587343	     -2.91372240	     -1.06056514	     20.26471548	      0.35368601	      5.22450165	      0.00000000	     -7.47871344	     18.90192483	     -2.13021196	    -14.22579761	     14.89295244	      0.25993106	    -10.25991977	     -9.40387129	     -7.47871344	     -7.65655040	     -2.95765484	      6.58000206	    -11.70653468	      5.08612923	    -34.40215901	     47.39177679	     67.16717826	      0.00000000	      0.00000000	    -12.03210126	      5.35240087	    -20.57296655	     34.22623226	     66.82747416	      0.00000000	      0.00000000
      8.80000000	      2.78298050	      0.79945678	     -7.00427702	     -0.13677711	      0.96549589	      0.00167330	    -14.93439586	     -3.32199568	     -1.20231781	     22.60157125	      0.39447183	      4.94280999	      0.00000000	     -7.47880150	     17.93839466	     -1.79857536	    -14.03823046	     15.25265297	      0.26620901	    -10.17728861	     -9.42911228	     -7.47880150	     -8.06709870	     -3.09299421	      6.25600262	    -11.95373075	      5.13258370	    -34.46295269	     47.29375743	     67.15898622	      0.00000000	      0.00000000	    -11.90441356	      5.31283687	    -20.57186873	     34.25738846	     66.83799943	      0.00000000	      0.00000000
      8.81000000	      2.87268884	      1.20989009	     -7.16872613	     -0.12687427	      0.96719640	      0.00037561	    -13.79392016	     -4.11763940	     -1.25748106	     25.30361526	      0.44163140	      1.93575831	      0.00000000	     -7.47997707	     17.02046391	     -1.15173278	    -14.39089820	     14.87321477	      0.25958657	     -9.24672187	     -9.69329439	     -7.47997707	     -7.94948145	     -3.62256122	      6.33293653	    -11.91958361	      5.33535097	    -34.81536926	     47.24815785	     67.11334974	      0.00000000	      0.00000000	    -11.46166637	      5.20365929	    -20.61673620	     34.36698352	     66.94600957	      0.00000000	      0.00000000
      8.82000000	      3.14469454	      1.40882813	     -7.21054253	     -0.11710291	      0.96902998	     -0.00109730	    -12.78185548	     -4.67229754	     -1.24391748	     28.09974008	      0.49043298	      0.17707299	      0.00000000	     -7.48116991	     16.04151469	     -0.67588630	    -14.32915447	     14.76769419	      0.25774489	     -8.72276928	     -9.59205120	     -7.48116991	     -8.13561865	     -3.83250030	      6.06106731	    -12.26842487	      5.48353520	    -34.69819674	     48.05947204	     66.35016679	      0.00000000	      0.00000000	    -11.78587395	      5.17702693	    -20.35563297	     35.82242489	     66.24854660	      0.00000000	      0.00000000
      8.83000000	      3.30733239	      1.51544146	     -7.27791377	     -0.10770469	      0.97067432	     -0.00256591	    -11.40855482	     -5.12181975	     -1.11756557	     31.23248198	      0.54510964	     -1.91306750	      0.00000000	     -7.48417918	     15.24080436	     -0.36431729	    -14.43365428	     14.79734606	      0.25826241	     -8.01121180	     -9.47709819	     -7.48417918	     -8.22712507	     -3.98006460	      6.09570536	    -12.05179672	      5.59325697	    -35.30234725	     47.34694617	     65.78047179	      0.00000000	      0.00000000	    -10.84079317	      4.96162818	    -20.18818285	     34.71940653	     65.90362200	      0.00000000	      0.00000000
      8.84000000	      3.49697604	      1.68971286	     -7.34773526	     -0.09836017	      0.97223449	     -0.00413392	     -9.97083438	     -5.64177403	     -0.88657541	     34.41338197	      0.60062682	     -3.79844986	      0.00000000	     -7.48673813	     14.32225448	      0.07210162	    -14.43094649	     14.59444407	      0.25472110	     -7.43716861	     -9.40251430	     -7.48673813	     -8.34823687	     -4.15840210	      5.90711643	    -12.15111991	      5.72222849	    -35.54421423	     47.60420176	     65.43206020	      0.00000000	      0.00000000	    -10.58991377	      4.87651228	    -20.02671674	     34.90243270	     65.71003492	      0.00000000	      0.00000000
      8.85000000	      3.73554168	      1.88578938	     -7.48727513	     -0.08925958	      0.97376260	     -0.00551127	     -8.42564828	     -6.14886345	     -0.45004269	     37.72885241	      0.65849270	     -5.11107318	      0.00000000	     -7.48726944	     13.38831324	      0.47381119	    -14.71150083	     14.44865554	      0.25217661	     -6.94425514	     -9.28999537	     -7.48726944	     -8.57783287	     -4.42341555	      5.92633946	    -12.69281392	      5.84931646	    -35.13201484	     48.88746889	     64.89114338	      0.00000000	      0.00000000	    -10.90243371	      4.81480129	    -19.77649256	     37.25821826	     65.12875691	      0.00000000	      0.00000000
      8.86000000	      3.74416672	      1.97697322	     -7.48357118	     -0.08044410	      0.97491940	     -0.00690592	     -6.58669215	     -6.43562973	     -0.06223364	     41.00421169	      0.71565850	     -7.90587152	      0.00000000	     -7.48915635	     12.81336556	      0.71742270	    -14.83380779	     14.49767553	      0.25303217	     -6.37653595	     -9.10748547	     -7.48915635	     -8.53304689	     -4.47159336	      5.48881202	    -12.19560451	      5.73925775	    -35.17749663	     47.87481152	     64.62038407	      0.00000000	      0.00000000	    -10.07749832	      4.56964472	    -19.54320128	     35.73796493	     64.92027946	      0.00000000	      0.00000000
      8.87000000	      3.88372627	      2.12844313	     -7.52310919	     -0.07177402	      0.97607869	     -0.00816654	     -4.82965042	     -6.76697655	      0.40054917	     44.21878744	      0.77176343	     -8.57220080	      0.00000000	     -7.48963964	     12.05691506	      1.04965182	    -14.89738836	     14.43028234	      0.25185594	     -6.05399037	     -8.87871821	     -7.48963964	     -8.67508270	     -4.63246478	      5.17313505	    -12.15961788	      5.83031392	    -35.16684596	     48.26131421	     64.55763461	      0.00000000	      0.00000000	     -9.87020788	      4.46228132	    -19.53610029	     36.32698581	     64.87395431	      0.00000000	      0.00000000
      8.88000000	      3.85569691	      2.33018641	     -7.56033241	     -0.06324983	      0.97694808	     -0.00942336	     -2.93964007	     -7.11410256	      0.85146920	     47.10425505	      0.82212434	    -12.35427617	      0.00000000	     -7.49038800	     11.49509038	      1.39317336	    -15.12062736	     14.36280093	      0.25067817	     -5.38609424	     -8.75272675	     -7.49038800	     -8.61935391	     -4.86915875	      4.99723805	    -12.15517727	      5.91766495	    -35.19116024	     48.31195620	     64.60558756	      0.00000000	      0.00000000	     -9.48301493	      4.26494174	    -19.50273656	     36.56818684	     65.01126377	      0.00000000	      0.00000000
      8.89000000	      4.08376470	      2.59726652	     -7.59766813	     -0.05471686	      0.97799219	     -0.01064077	     -1.42621072	     -7.54681777	      1.28058152	     49.66844917	      0.86687797	    -13.14184273	      0.00000000	     -7.49059954	     10.45196197	      1.88022305	    -15.64776022	     13.90801697	      0.24274069	     -5.19586120	     -8.58455159	     -7.49059954	     -8.82434901	     -5.13024149	      4.66579211	    -11.97287961	      5.98300414	    -35.13936837	     48.48741110	     64.60183057	      0.00000000	      0.00000000	     -9.11900286	      4.07158281	    -19.48804991	     36.84238180	     65.03222716	      0.00000000	      0.00000000
      8.90000000	      3.92296265	      2.68012316	     -7.49527016	     -0.04682042	      0.97845019	     -0.01180172	      0.43070874	     -7.66998654	      1.57766741	     51.94993843	      0.90669747	    -17.64322602	      0.00000000	     -7.49116793	     10.03124001	      2.13460527	    -15.60111964	     13.75500645	      0.24007015	     -4.54116908	     -8.08272370	     -7.49116793	     -8.69769256	     -5.21785899	      4.29412558	    -11.87706964	      6.07279230	    -35.02253632	     48.46815164	     64.67895182	      0.00000000	      0.00000000	     -8.66278839	      3.79515680	    -19.41194034	     37.13497419	     65.19711351	      0.00000000	      0.00000000
      8.91000000	      4.07713091	      2.82292917	     -7.42489439	     -0.03874401	      0.97938409	     -0.01299998	      1.82483543	     -7.91161612	      1.89216734	     53.95088735	      0.94162062	    -17.95893655	      0.00000000	     -7.49135517	      9.20965186	      2.55089447	    -15.27520357	     13.43008733	      0.23439924	     -4.33186648	     -7.97984035	     -7.49135517	     -8.89650294	     -5.34135809	      3.92714517	    -11.68323985	      6.10610170	    -34.95225255	     48.65103415	     64.66982443	      0.00000000	      0.00000000	     -8.18878504	      3.62505796	    -19.36990311	     37.49034319	     65.21195355	      0.00000000	      0.00000000
      8.92000000	      4.08648560	      2.85863842	     -7.35076220	     -0.03087651	      0.98011177	     -0.01395679	      3.32816291	     -7.96231589	      2.15215532	     55.82400937	      0.97431277	    -17.96223145	      0.00000000	     -7.49159604	      8.62668602	      2.75202568	    -15.18015672	     13.33448503	      0.23273067	     -4.01058143	     -7.88626455	     -7.49159604	     -8.95904838	     -5.35424366	      3.57724276	    -11.53327137	      6.20683925	    -34.84668250	     48.83768981	     64.65201383	      0.00000000	      0.00000000	     -7.76714642	      3.38826583	    -19.33414406	     37.88437020	     65.22100653	      0.00000000	      0.00000000
      8.93000000	      4.03524393	      2.86088337	     -7.27647833	     -0.02317080	      0.98071216	     -0.01476509	      4.83657928	     -7.94082253	      2.39696078	     57.49713524	      1.00351432	    -17.28670316	      0.00000000	     -7.49182382	      8.03982240	      2.93259811	    -15.09560076	     13.10733218	      0.22876610	     -3.64688068	     -7.79991326	     -7.49182382	     -8.97901170	     -5.35755320	      3.28234239	    -11.35180758	      6.29326787	    -34.72521922	     49.00507013	     64.63959186	      0.00000000	      0.00000000	     -7.31327726	      3.12103529	    -19.28554796	     38.26906046	     65.23990481	      0.00000000	      0.00000000
      8.94000000	      3.98141520	      2.86263264	     -7.16579548	     -0.01543778	      0.98131005	     -0.01584453	      6.28740369	     -7.97677873	      2.47814258	     58.91504183	      1.02826146	    -13.91147185	      0.00000000	     -7.49263370	      7.53715818	      3.09053923	    -15.04466510	     13.02951219	      0.22740789	     -2.63210105	     -7.49640359	     -7.49263370	     -8.93557280	     -5.25487784	      2.95048645	    -11.27786372	      6.27111686	    -34.34757221	     48.92610837	     64.72388378	      0.00000000	      0.00000000	     -6.85555817	      2.77231520	    -18.86659147	     38.41398141	     65.49323365	      0.00000000	      0.00000000
      8.95000000	      3.91205195	      2.85738042	     -6.99916336	     -0.00788740	      0.98189145	     -0.01689007	      7.68968439	     -8.02703218	      2.41072785	     59.96875577	      1.04665224	    -13.00313174	      0.00000000	     -7.49284620	      7.06767454	      3.24948016	    -14.82194703	     12.94523994	      0.22593706	     -2.41200038	     -7.41408133	     -7.49284620	     -8.93243861	     -5.20046554	      2.62821117	    -11.10561121	      6.32252303	    -34.24225778	     49.12149990	     64.70828856	      0.00000000	      0.00000000	     -6.31965737	      2.54192046	    -18.78692369	     38.79150439	     65.51432891	      0.00000000	      0.00000000
      8.96000000	      3.97119238	      2.62397396	     -6.84028534	     -0.00009895	      0.98276127	     -0.01783644	      8.77084360	     -7.87059688	      2.17468186	     60.49568678	      1.05584892	    -12.82236563	      0.00000000	     -7.49289267	      6.33369770	      3.16445454	    -14.77840227	     12.75757773	      0.22266174	     -2.35183599	     -7.38727114	     -7.49289267	     -9.03813601	     -4.88626310	      2.45428356	    -11.16889746	      6.35939725	    -34.23348829	     49.15333501	     64.69406563	      0.00000000	      0.00000000	     -6.12050513	      2.48012250	    -18.77006997	     38.94670932	     65.50898136	      0.00000000	      0.00000000
      8.97000000	      3.86758931	      2.74070726	     -6.67872435	      0.00737121	      0.98321451	     -0.01880001	     10.15244049	     -8.04789187	      2.05083211	     60.95961058	      1.06394592	     -9.06213103	      0.00000000	     -7.49339539	      5.80835263	      3.47963015	    -14.43908215	     12.42402233	      0.21684010	     -1.39452797	     -7.27336610	     -7.49339539	     -9.00591060	     -4.91597824	      2.04870422	    -10.99016382	      6.43243906	    -33.95860775	     49.36200586	     64.72869388	      0.00000000	      0.00000000	     -5.32687633	      2.02970894	    -18.41415629	     39.14973457	     65.70533211	      0.00000000	      0.00000000
      8.98000000	      3.88564312	      2.69247620	     -6.47261226	      0.01487785	      0.98392451	     -0.01983778	     11.17824552	     -8.11015079	      1.73586841	     60.86711290	      1.06233153	     -8.78917737	      0.00000000	     -7.49348014	      5.14115224	      3.61916212	    -14.12373461	     12.14696792	      0.21200458	     -1.28210335	     -7.23500243	     -7.49348014	     -9.09795050	     -4.77843747	      1.77600118	    -10.86499683	      6.50366344	    -33.88748183	     49.45347489	     64.72868461	      0.00000000	      0.00000000	     -4.71413764	      1.79826481	    -18.35099454	     39.40721201	     65.74612923	      0.00000000	      0.00000000
      8.99000000	      3.88055814	      2.62595297	     -6.36368050	      0.02244584	      0.98455549	     -0.02061002	     12.21283614	     -8.11837873	      1.43627047	     60.50931933	      1.05608685	     -8.72864070	      0.00000000	     -7.49348549	      4.46194194	      3.68179456	    -14.20054867	     11.87019425	      0.20717397	     -1.24928288	     -7.24921793	     -7.49348549	     -9.17292264	     -4.68587186	      1.66290238	    -10.88036717	      6.53187381	    -33.87907024	     49.46068711	     64.72660298	      0.00000000	      0.00000000	     -4.55580325	      1.75161209	    -18.33871231	     39.47646924	     65.75218523	      0.00000000	      0.00000000
      9.00000000	      3.89471543	      2.54908717	     -5.97945221	      0.03000097	      0.98536251	     -0.02179129	     13.04967490	     -8.19167612	      0.80079846	     59.86736259	      1.04488259	     -7.96851861	      0.00000000	     -7.49358354	      3.78762583	      3.82266759	    -13.50883630	     11.52055267	      0.20107158	     -0.98885408	     -7.21337467	     -7.49358354	     -9.21055901	     -4.48308654	      1.21979508	    -10.72922924	      6.63861134	    -33.79432146	     49.61264694	     64.72466538	      0.00000000	      0.00000000	     -3.58729378	      1.37948829	    -18.25209069	     39.87011282	     65.81281641	      0.00000000	      0.00000000
      9.01000000	      3.88539284	      2.55599976	     -5.94283993	      0.03745760	      0.98594608	     -0.02246656	     13.96275311	     -8.22673771	      0.55483180	     59.09514643	      1.03140488	     -7.87170228	      0.00000000	     -7.49355742	      3.06420747	      3.97692768	    -13.62276878	     11.08581775	      0.19348402	     -0.94076355	     -7.26729454	     -7.49355742	     -9.22672918	     -4.42674663	      1.10470330	    -10.71514441	      6.67053059	    -33.78235170	     49.58022681	     64.73715316	      0.00000000	      0.00000000	     -3.38239839	      1.31873826	    -18.23568500	     39.87514579	     65.83987972	      0.00000000	      0.00000000
      9.02000000	      4.08596610	      2.34744555	     -5.54995610	      0.04495845	      0.98696996	     -0.02344166	     14.33564915	     -8.11104394	     -0.10678969	     57.85504144	      1.00976096	     -4.52000049	      0.00000000	     -7.49422956	      2.05194176	      3.96867680	    -13.12288637	     10.53207476	      0.18381938	      0.05729513	     -6.45415488	     -7.49422956	     -9.52506802	     -4.12804619	      0.84904763	    -10.77660349	      6.77869261	    -33.62159848	     50.08247645	     64.74668837	      0.00000000	      0.00000000	     -2.40114257	      0.80672502	    -17.42563012	     39.95276416	     66.30859468	      0.00000000	      0.00000000
      9.03000000	      4.02443471	      2.26716017	     -5.36537831	      0.05237699	      0.98740270	     -0.02410039	     15.09063874	     -8.00933609	     -0.48326044	     56.61009661	      0.98803258	     -4.30316489	      0.00000000	     -7.49426565	      1.37922503	      4.03382265	    -12.87554929	     10.08054406	      0.17593868	      0.13744509	     -6.45972134	     -7.49426565	     -9.49782378	     -3.98039763	      0.69380389	    -10.69219661	      6.83549182	    -33.58136234	     50.08834353	     64.75577489	      0.00000000	      0.00000000	     -1.85060682	      0.59028063	    -17.36259423	     40.11777268	     66.37708068	      0.00000000	      0.00000000
      9.04000000	      3.94512352	      2.13096830	     -5.18502730	      0.05967624	      0.98784528	     -0.02476854	     15.74682537	     -7.87960565	     -0.99432823	     54.99857598	      0.95990623	     -3.79537893	      0.00000000	     -7.49430519	      0.70524567	      4.03306135	    -12.62548857	      9.57620096	      0.16713624	      0.28235706	     -6.45261964	     -7.49430519	     -9.45410124	     -3.75364519	      0.55972257	    -10.60733666	      6.87691720	    -33.54597333	     50.09894700	     64.76146787	      0.00000000	      0.00000000	     -1.26899419	      0.40417215	    -17.29241781	     40.33230423	     66.43922753	      0.00000000	      0.00000000
      9.05000000	      3.90399891	      2.07813592	     -4.95113829	      0.06682824	      0.98820670	     -0.02537551	     16.25438721	     -7.81696387	     -1.50600211	     53.14613789	      0.92757509	     -3.14207743	      0.00000000	     -7.49434741	      0.03376738	      4.11520519	    -12.29084581	      9.12338411	      0.15923309	      0.45013084	     -6.42473785	     -7.49434741	     -9.49149100	     -3.64640410	      0.39931758	    -10.55732842	      6.91317208	    -33.52015777	     50.07863092	     64.76852980	      0.00000000	      0.00000000	     -0.70357882	      0.22529325	    -17.20372200	     40.52308292	     66.51390703	      0.00000000	      0.00000000
      9.06000000	      4.08551380	      2.01852880	     -4.84223986	      0.07430654	      0.98870150	     -0.02583101	     16.49254106	     -7.75871431	     -1.92845087	     51.24601574	      0.89441170	     -1.23767278	      0.00000000	     -7.49457708	     -0.98029774	      4.22749626	    -12.01814738	      8.52625030	      0.14881114	      0.85089897	     -6.15242093	     -7.49457708	     -9.69747812	     -3.52408203	      0.40324239	    -10.47362882	      6.91515542	    -33.48358758	     50.04538832	     64.77379779	      0.00000000	      0.00000000	     -0.17881045	      0.02202819	    -16.84244428	     40.70622304	     66.74075418	      0.00000000	      0.00000000
      9.07000000	      3.92114204	      2.02484430	     -4.75533934	      0.08163813	      0.98863338	     -0.02616285	     17.09249288	     -7.71045500	     -2.32110960	     49.14026647	      0.85765945	     -1.02355401	      0.00000000	     -7.49461179	     -1.58056881	      4.36498778	    -11.66970663	      7.99918502	      0.13961212	      0.96386299	     -6.15166123	     -7.49461179	     -9.50837851	     -3.45809768	      0.33486256	    -10.41074848	      6.96504115	    -33.45321642	     50.00402886	     64.78588498	      0.00000000	      0.00000000	      0.25338186	     -0.19642973	    -16.77766213	     40.85517119	     66.81444008	      0.00000000	      0.00000000
      9.08000000	      3.75597191	      2.13272202	     -4.69015158	      0.08890866	      0.98834748	     -0.02642451	     17.66032042	     -7.76231450	     -2.75573920	     46.94483776	      0.81934199	     -0.85681179	      0.00000000	     -7.49460868	     -2.16066329	      4.59416571	    -11.67037731	      7.43400344	      0.12974784	      1.02243873	     -6.15835918	     -7.49460868	     -9.32585752	     -3.51745612	      0.28549849	    -10.31458970	      7.01783052	    -33.42054016	     49.96310296	     64.80290367	      0.00000000	      0.00000000	      0.63314388	     -0.36704188	    -16.74467449	     40.96446121	     66.86965880	      0.00000000	      0.00000000
      9.09000000	      3.74714220	      2.07519255	     -4.52250414	      0.09624395	      0.98825018	     -0.02665413	     17.88890865	     -7.62391661	     -3.22876917	     44.53669463	      0.77731196	     -0.54039401	      0.00000000	     -7.49461247	     -2.89302850	      4.64913883	    -11.12091835	      6.99351696	      0.12205990	      1.13184390	     -6.17746638	     -7.49461247	     -9.34916101	     -3.40748996	      0.22538888	    -10.27389750	      7.04242442	    -33.40280518	     49.83950611	     64.83311440	      0.00000000	      0.00000000	      1.19300642	     -0.56722686	    -16.65145734	     41.14527897	     66.97252058	      0.00000000	      0.00000000
      9.10000000	      3.72700532	      2.20306135	     -4.37656884	      0.10344338	      0.98805196	     -0.02681447	     18.10878992	     -7.67172864	     -3.64267851	     42.01355693	      0.73327490	     -0.30016068	      0.00000000	     -7.49460875	     -3.54961384	      4.86473430	    -10.95640008	      6.62169934	      0.11557046	      1.26079717	     -6.19338448	     -7.49460875	     -9.35827141	     -3.51803638	      0.13659076	    -10.17789667	      7.09083034	    -33.37315441	     49.72241213	     64.86944760	      0.00000000	      0.00000000	      1.68748916	     -0.76297360	    -16.55754333	     41.30368874	     67.07896414	      0.00000000	      0.00000000
      9.11000000	      3.61834375	      2.56902884	     -4.41723228	      0.11049430	      0.98719641	     -0.02677574	     18.57772745	     -7.87798430	     -3.71094554	     39.66874916	      0.69235028	     -0.21367586	      0.00000000	     -7.49454270	     -4.10525939	      5.35320639	    -10.96273433	      6.13089567	      0.10700432	      1.30367336	     -6.26010831	     -7.49454270	     -9.26341626	     -3.91644731	      0.07691272	    -10.05175529	      7.10218786	    -33.35483814	     49.62414020	     64.91227567	      0.00000000	      0.00000000	      1.92503494	     -0.86338043	    -16.53688090	     41.24257897	     67.15446089	      0.00000000	      0.00000000
      9.12000000	      3.76718831	      2.45316210	     -4.19221556	      0.11803100	      0.98723804	     -0.02683912	     18.36596398	     -7.69129132	     -4.35394333	     36.88472918	      0.64375997	      0.08858396	      0.00000000	     -7.49461150	     -4.94313667	      5.28951864	    -10.62194521	      5.81057026	      0.10141358	      1.60613997	     -6.09076340	     -7.49461150	     -9.43870214	     -3.76070104	      0.00214845	     -9.96536009	      7.13737662	    -33.33249582	     49.45089385	     64.96495405	      0.00000000	      0.00000000	      2.44805646	     -1.12320562	    -16.28984509	     41.69141321	     67.33375052	      0.00000000	      0.00000000
      9.13000000	      3.58507837	      2.58897465	     -4.20125892	      0.12528786	      0.98640482	     -0.02648404	     18.68793374	     -7.57645343	     -4.44224593	     34.19590051	      0.59683105	      0.08437494	      0.00000000	     -7.49460197	     -5.40115085	      5.48166844	    -10.60224614	      5.48075547	      0.09565723	      1.74499937	     -6.06712686	     -7.49460197	     -9.25235549	     -3.84988612	     -0.03741236	     -9.89407301	      7.23714303	    -33.29849062	     49.32812178	     65.00886374	      0.00000000	      0.00000000	      2.74005142	     -1.37158064	    -16.21193868	     41.85219584	     67.44097657	      0.00000000	      0.00000000
      9.14000000	      3.45537009	      3.00102054	     -4.20234035	      0.13229179	      0.98536409	     -0.02615030	     19.04826123	     -7.79726053	     -4.52015386	     31.63178195	      0.55207874	      0.05880182	      0.00000000	     -7.49454056	     -5.86201725	      5.96841861	    -10.57722404	      5.17004055	      0.09023423	      1.81397301	     -6.12207036	     -7.49454056	     -9.17550283	     -4.32902286	     -0.08695234	     -9.76787354	      7.26574954	    -33.27612327	     49.23943818	     65.05254820	      0.00000000	      0.00000000	      2.95851553	     -1.49762737	    -16.18798869	     41.84027174	     67.51853742	      0.00000000	      0.00000000
      9.15000000	      3.39845131	      3.01269852	     -3.93149564	      0.13960861	      0.98462967	     -0.02607960	     18.99546493	     -7.71023590	     -5.22396905	     28.74386296	      0.50167505	     -0.41350985	      0.00000000	     -7.49455426	     -6.34704636	      5.98296865	    -10.12062436	      5.07591045	      0.08859135	      2.12995227	     -6.08672439	     -7.49455426	     -9.16303942	     -4.27180702	     -0.26673002	     -9.78730159	      7.38399162	    -33.25486438	     49.11158365	     65.09497993	      0.00000000	      0.00000000	      3.37179314	     -1.76346877	    -16.05218404	     42.22458034	     67.63710471	      0.00000000	      0.00000000
      9.16000000	      3.37771156	      3.18934532	     -3.74595672	      0.14682301	      0.98370501	     -0.02580917	     18.95555341	     -7.72170497	     -5.64913313	     25.87903464	      0.45167436	     -2.05092338	      0.00000000	     -7.49561048	     -6.86666310	      6.16989287	     -9.96687004	      4.95609160	      0.08650012	      3.46452193	     -4.86634966	     -7.49561048	     -9.22990126	     -4.40567052	     -0.70301791	     -9.57623863	      7.46840457	    -33.19025458	     49.11497227	     65.26341198	      0.00000000	      0.00000000	      2.39892920	     -2.52661802	    -14.23276191	     44.73455262	     68.09873960	      0.00000000	      0.00000000
      9.17000000	      3.19736611	      3.37110915	     -3.66444684	      0.15413475	      0.98260756	     -0.02536440	     19.13528918	     -7.68540488	     -5.99678835	     23.11857037	      0.40349517	     -2.27332234	      0.00000000	     -7.49564768	     -7.19225604	      6.35226374	     -9.91073010	      4.90800733	      0.08566089	      3.57131723	     -4.90571185	     -7.49564768	     -9.05990154	     -4.56857416	     -0.75713961	     -9.57984480	      7.55768929	    -33.16321105	     49.04768424	     65.28539464	      0.00000000	      0.00000000	      2.64123765	     -2.69824841	    -14.20615955	     44.79874207	     68.12032076	      0.00000000	      0.00000000
      9.18000000	      3.23041123	      3.51994606	     -3.49849036	      0.16142602	      0.98180586	     -0.02503849	     18.97378642	     -7.63857036	     -6.39255765	     20.28388917	      0.35402065	     -3.82170741	      0.00000000	     -7.49579908	     -7.70012002	      6.49411812	     -9.68189625	      4.93731089	      0.08617233	      4.02144432	     -4.98183335	     -7.49579908	     -9.18021899	     -4.71577164	     -0.88322588	     -9.52347072	      7.58030417	    -33.14539745	     49.01206923	     65.34000954	      0.00000000	      0.00000000	      2.86706318	     -2.84096209	    -13.97467529	     44.95451679	     68.15441429	      0.00000000	      0.00000000
      9.19000000	      2.98973719	      3.66859851	     -3.42083426	      0.16879583	      0.98067189	     -0.02453413	     19.13389445	     -7.49695351	     -6.40224682	     17.58797015	      0.30696799	     -4.11427241	      0.00000000	     -7.49586286	     -7.98042672	      6.63981838	     -9.57774141	      4.82599790	      0.08422955	      4.12202636	     -4.94360410	     -7.49586286	     -8.91295518	     -4.82107063	     -0.93469040	     -9.59560056	      7.66535712	    -33.12985241	     49.01547076	     65.33211514	      0.00000000	      0.00000000	      2.95029290	     -2.97992721	    -13.94560834	     45.08876201	     68.13061673	      0.00000000	      0.00000000
      9.20000000	      3.02221381	      3.72091239	     -3.23789536	      0.17611269	      0.97990676	     -0.02423574	     18.88063240	     -7.33380527	     -6.80738963	     14.86010937	      0.25935784	     -6.27539009	      0.00000000	     -7.49600853	     -8.46232422	      6.66643531	     -9.27290156	      4.91937367	      0.08585927	      4.70414931	     -5.03367367	     -7.49600853	     -9.03517223	     -4.79641058	     -1.14030198	     -9.50467718	      7.66378398	    -33.11933091	     48.98279268	     65.42465002	      0.00000000	      0.00000000	      3.02733994	     -3.14653557	    -13.61998709	     45.28430419	     68.20147686	      0.00000000	      0.00000000
      9.21000000	      2.90814588	      3.79198119	     -3.11537855	      0.18352052	      0.97892952	     -0.02377391	     18.84905382	     -7.13926912	     -6.81989885	     12.36782311	      0.21585923	     -7.04561661	      0.00000000	     -7.49626473	     -8.83782518	      6.70798802	     -9.18028611	      4.92532215	      0.08596309	      5.04388320	     -5.03291666	     -7.49626473	     -8.97027020	     -4.80275486	     -1.23565576	     -9.70870223	      7.60967550	    -32.73061393	     49.27273664	     65.23604154	      0.00000000	      0.00000000	      2.80251480	     -3.28970036	    -13.20973783	     46.06650615	     67.82904367	      0.00000000	      0.00000000
      9.22000000	      2.80775492	      3.80620735	     -3.02110562	      0.19103946	      0.97787426	     -0.02320460	     18.77365449	     -6.83978949	     -6.56984844	     10.08075507	      0.17594237	     -7.29965555	      0.00000000	     -7.49649424	     -9.21377152	      6.67517831	     -9.26262971	      5.02759434	      0.08774807	      5.42041917	     -5.02157701	     -7.49649424	     -8.88763197	     -4.74246366	     -1.26398601	     -9.79644119	      7.53064243	    -32.44729976	     49.31881856	     65.01092270	      0.00000000	      0.00000000	      2.70924943	     -3.39791264	    -12.82903327	     46.47375460	     67.38724104	      0.00000000	      0.00000000
      9.23000000	      2.78977880	      3.86040428	     -2.94004844	      0.19869502	      0.97685335	     -0.02258217	     18.59163223	     -6.60119183	     -6.23973033	      7.99100188	      0.13946929	     -7.51899390	      0.00000000	     -7.49672501	     -9.68367670	      6.69500020	     -9.12429873	      5.08165445	      0.08869160	      5.79947018	     -5.02993803	     -7.49672501	     -8.90029842	     -4.72094461	     -1.30967073	     -9.89482144	      7.48699608	    -32.20478665	     49.45754959	     64.73305338	      0.00000000	      0.00000000	      2.51771326	     -3.52639246	    -12.49516872	     46.87284078	     66.87978270	      0.00000000	      0.00000000
      9.24000000	      2.71086922	      3.83709066	     -2.82215768	      0.20632220	      0.97583972	     -0.02201269	     18.54707354	     -6.36079904	     -6.51333000	      6.30145258	      0.10998110	     -7.91635850	      0.00000000	     -7.49705517	    -10.04322850	      6.62224678	     -8.67953275	      5.19036958	      0.09058904	      6.13784584	     -5.56422574	     -7.49705517	     -8.83179814	     -4.57971592	     -1.42609136	     -9.72261020	      7.35306550	    -32.07453450	     48.90299904	     64.51948779	      0.00000000	      0.00000000	      2.59805760	     -3.60492107	    -12.15813684	     46.44582688	     66.42804094	      0.00000000	      0.00000000
      9.25000000	      2.67668332	      3.85240106	     -2.78710083	      0.21417964	      0.97468532	     -0.02126386	     18.57171025	     -6.15889915	     -6.79700458	      5.17779462	      0.09036956	     -7.67173400	      0.00000000	     -7.49709345	    -10.48851596	      6.59091168	     -8.66668900	      5.30013124	      0.09250474	      6.22938470	     -5.38939738	     -7.49709345	     -8.79169415	     -4.52280628	     -1.28350423	     -9.85952776	      7.33759662	    -32.15009526	     48.87015474	     64.52995548	      0.00000000	      0.00000000	      2.64718902	     -3.49746123	    -12.09208306	     46.40814439	     66.42103652	      0.00000000	      0.00000000
      9.26000000	      2.71877328	      3.85424512	     -2.74216989	      0.22198303	      0.97351414	     -0.02051660	     18.64876436	     -6.00670783	     -7.11459147	      4.67205879	      0.08154281	     -6.49534618	      0.00000000	     -7.49727238	    -11.00408044	      6.54031603	     -8.72134437	      5.42200504	      0.09463184	      6.96588953	     -4.78377861	     -7.49727238	     -8.84386159	     -4.44993151	     -1.09315337	     -9.98396352	      7.35672088	    -32.38628321	     48.94980088	     64.57035522	      0.00000000	      0.00000000	      2.80845478	     -3.38108132	    -11.90898741	     46.18234579	     66.36664071	      0.00000000	      0.00000000
      9.27000000	      2.65529040	      3.89045127	     -2.73607957	      0.22967902	      0.97238451	     -0.01971286	     19.03218218	     -5.91051765	     -7.25297496	      4.82574565	      0.08422515	     -6.46253638	      0.00000000	     -7.49728769	    -11.31761984	      6.51630590	     -8.72532287	      5.74091330	      0.10019784	      6.97338649	     -4.75823796	     -7.49728769	     -8.79929375	     -4.38931731	     -1.06629870	     -9.98757238	      7.35149833	    -32.39249675	     48.97771252	     64.56365614	      0.00000000	      0.00000000	      2.77337201	     -3.35644452	    -11.90060232	     46.19682269	     66.35390625	      0.00000000	      0.00000000
      9.28000000	      2.63360986	      3.83690992	     -2.67530055	      0.23763201	      0.97128631	     -0.01899110	     19.39976954	     -5.79627332	     -7.79317814	      5.42765332	      0.09473042	     -6.36663772	      0.00000000	     -7.49732361	    -11.66355964	      6.38528253	     -8.90376901	      6.10948292	      0.10663059	      7.16229615	     -4.74167542	     -7.49732361	     -8.77037428	     -4.21854635	     -0.98139047	    -10.07308668	      7.27959885	    -32.45172211	     48.97734926	     64.55664017	      0.00000000	      0.00000000	      2.53990167	     -3.16540708	    -11.84485769	     46.10858661	     66.32671038	      0.00000000	      0.00000000
      9.29000000	      2.71416758	      3.74193610	     -2.59779745	      0.24558581	      0.97030981	     -0.01822416	     19.63822503	     -5.66782253	     -7.82339166	      6.31223236	      0.11016924	     -6.40202033	      0.00000000	     -7.49733332	    -12.12159675	      6.21494321	     -8.77807596	      6.42500153	      0.11213743	      7.27325730	     -4.73683935	     -7.49733332	     -8.88976249	     -3.98810836	     -0.96023424	    -10.14863844	      7.25400865	    -32.48520838	     48.93508743	     64.55718839	      0.00000000	      0.00000000	      2.41728475	     -3.06266066	    -11.81744007	     46.03233147	     66.32002060	      0.00000000	      0.00000000
      9.30000000	      2.55532461	      3.80694140	     -2.51679944	      0.25351716	      0.96897363	     -0.01740881	     20.24646630	     -5.74974262	     -7.80410775	      7.66864904	      0.13384317	     -6.99473008	      0.00000000	     -7.49746521	    -12.23618461	      6.17438149	     -8.79093061	      6.89247625	      0.12029640	      8.69593635	     -4.65627455	     -7.49746521	     -8.69983265	     -3.94092668	     -0.95751918	    -10.08209900	      7.21345338	    -32.70819352	     48.73979383	     64.58801012	      0.00000000	      0.00000000	      2.25579832	     -2.83829241	    -11.76004721	     45.57241011	     66.24992808	      0.00000000	      0.00000000
      9.31000000	      2.71453592	      3.68072818	     -2.35086601	      0.26173500	      0.96819672	     -0.01653800	     20.29562575	     -5.63055386	     -7.33195368	      8.96891637	      0.15653712	     -7.10819172	      0.00000000	     -7.49747406	    -12.72203497	      5.91487955	     -8.64964777	      7.35716331	      0.12840672	      8.72057106	     -4.62197923	     -7.49747406	     -8.90136791	     -3.68230143	     -1.00628137	    -10.20908895	      7.19544531	    -32.75107577	     48.67609964	     64.58745582	      0.00000000	      0.00000000	      2.11323402	     -2.72981650	    -11.73616675	     45.48656002	     66.24257672	      0.00000000	      0.00000000
      9.32000000	      2.66357335	      3.76195643	     -2.34434384	      0.26994874	      0.96703980	     -0.01537819	     20.69021252	     -5.64625008	     -6.55919173	     10.39410651	      0.18141138	     -8.33187256	      0.00000000	     -7.49770396	    -12.92240581	      5.86626669	     -8.97641800	      7.92346055	      0.13829047	      9.66156648	     -3.97439011	     -7.49770396	     -8.79939788	     -3.67374101	     -1.06147248	     -9.98142455	      7.20013355	    -33.15323148	     48.28867313	     64.65957240	      0.00000000	      0.00000000	      1.84770353	     -2.49952215	    -11.80956513	     44.84661320	     66.10698742	      0.00000000	      0.00000000
      9.33000000	      2.73010242	      3.70875261	     -2.20463353	      0.27836195	      0.96625465	     -0.01423940	     20.79562204	     -5.51967353	     -5.96465794	     11.53356225	      0.20129864	     -8.42498153	      0.00000000	     -7.49773657	    -13.23243615	      5.60639081	     -9.29594730	      8.59459436	      0.15000397	      9.73848740	     -3.88980717	     -7.49773657	     -8.83671625	     -3.50300368	     -1.17064583	    -10.01667343	      7.18277702	    -33.22882665	     48.23334769	     64.67178435	      0.00000000	      0.00000000	      1.52851615	     -2.30852073	    -11.78944269	     44.64992412	     66.08461551	      0.00000000	      0.00000000
      9.34000000	      2.82121613	      3.50359782	     -1.98283188	      0.28699556	      0.96597014	     -0.01307340	     20.76216889	     -5.23286218	     -5.49003178	     12.52136837	      0.21853910	     -8.49278872	      0.00000000	     -7.49774430	    -13.57981182	      5.15289989	     -9.32445375	      9.25209568	      0.16147953	      9.75268377	     -3.84860438	     -7.49774430	     -8.90170690	     -3.17593812	     -1.20132881	    -10.16607104	      7.18411594	    -33.27120318	     48.15559113	     64.67208528	      0.00000000	      0.00000000	      1.29500819	     -2.20845975	    -11.78053483	     44.52758737	     66.07390504	      0.00000000	      0.00000000
      9.35000000	      2.88705083	      3.37254794	     -1.74883141	      0.29559704	      0.96557531	     -0.01179706	     20.69459544	     -5.02635019	     -5.09082865	     13.41362666	      0.23411195	     -8.58543916	      0.00000000	     -7.49775319	    -13.82790099	      4.73063985	     -9.50376756	     10.00830980	      0.17467796	      9.78114134	     -3.78682042	     -7.49775319	     -8.92846123	     -2.93447254	     -1.29281360	    -10.31074960	      7.16805119	    -33.32531071	     48.07400288	     64.67177531	      0.00000000	      0.00000000	      0.96327838	     -2.02813508	    -11.75842207	     44.33995869	     66.05854890	      0.00000000	      0.00000000
      9.36000000	      2.73325072	      3.13549598	     -1.50687356	      0.30421602	      0.96518660	     -0.01041742	     20.77545377	     -4.72396007	     -4.83132697	     14.20373243	      0.24790190	     -8.77915467	      0.00000000	     -7.49777956	    -13.71559608	      4.09269913	    -10.08930377	     11.04235671	      0.19272548	      9.91838668	     -3.51887275	     -7.49777956	     -8.66615174	     -2.59185585	     -1.60949965	    -10.33807550	      7.10934791	    -33.43345585	     47.96379282	     64.67662737	      0.00000000	      0.00000000	      0.34832762	     -1.69221572	    -11.74053420	     43.87942012	     66.01570789	      0.00000000	      0.00000000
      9.37000000	      2.57976611	      2.91737190	     -1.13943360	      0.31300309	      0.96498020	     -0.00930275	     20.78209584	     -4.52495466	     -4.82150056	     14.95579424	      0.26102785	     -8.99832403	      0.00000000	     -7.49782738	    -13.60337561	      3.48936932	    -10.21658427	     12.01315532	      0.20966911	     10.13806222	     -2.91542675	     -7.49782738	     -8.39173214	     -2.13701492	     -2.00885148	    -10.29643746	      7.10689922	    -33.58937027	     47.73694451	     64.69037798	      0.00000000	      0.00000000	     -0.21692713	     -1.50597827	    -11.83184450	     43.22715890	     65.94207637	      0.00000000	      0.00000000
      9.38000000	      2.68037737	      2.71567142	     -0.92937420	      0.32198541	      0.96522499	     -0.00791727	     20.48163640	     -4.30136772	     -4.59949832	     15.73986816	      0.27471252	     -9.01128710	      0.00000000	     -7.49783656	    -13.83507758	      2.98101747	    -10.07274320	     12.79316956	      0.22328293	     10.12337541	     -2.79071213	     -7.49783656	     -8.40388987	     -1.83923214	     -1.96549425	    -10.45086857	      7.09660917	    -33.64967691	     47.62698650	     64.69081054	      0.00000000	      0.00000000	     -0.53444203	     -1.38813575	    -11.84478843	     43.01813669	     65.92208143	      0.00000000	      0.00000000
      9.39000000	      2.77824413	      2.41556074	     -0.75906958	      0.33091383	      0.96585002	     -0.00635674	     20.16126517	     -3.92650070	     -4.46861861	     16.47233143	      0.28749642	     -8.93688143	      0.00000000	     -7.49784709	    -13.88954830	      2.32168079	    -10.08655753	     13.90511045	      0.24268996	     10.05660970	     -2.64449845	     -7.49784709	     -8.42227661	     -1.42155395	     -1.92409431	    -10.63043678	      7.05206053	    -33.73344152	     47.49800511	     64.69061627	      0.00000000	      0.00000000	     -0.98722703	     -1.16375056	    -11.84477492	     42.71621097	     65.89596993	      0.00000000	      0.00000000
      9.40000000	      2.69043210	      2.05561406	     -0.58140470	      0.34008879	      0.96631379	     -0.00465690	     19.92517506	     -3.46762970	     -4.42302659	     17.10263693	      0.29849733	     -7.38709063	      0.00000000	     -7.49807629	    -13.60060769	      1.48881496	    -10.56491324	     15.31345000	      0.26727012	      9.92915837	     -0.68778932	     -7.49807629	     -8.12619880	     -0.91772856	     -2.11423080	    -10.28212490	      7.00512129	    -34.56339626	     46.45006177	     64.83780083	      0.00000000	      0.00000000	     -1.01037633	     -0.58044615	    -12.63644199	     40.46414535	     65.59771246	      0.00000000	      0.00000000
      9.41000000	      2.80543719	      1.81763319	     -0.44766988	      0.34916880	      0.96714860	     -0.00290475	     19.43893630	     -3.11927642	     -4.27999030	     17.67591293	      0.30850288	     -7.24076775	      0.00000000	     -7.49809394	    -13.50860959	      0.83568787	    -10.69692449	     16.68006043	      0.29112197	      9.76763341	     -0.67025791	     -7.49809394	     -8.14131003	     -0.58733222	     -1.98756506	    -10.49181564	      6.99290266	    -34.66411659	     46.35526629	     64.85269724	      0.00000000	      0.00000000	     -1.48423576	     -0.35814436	    -12.67406442	     40.19192322	     65.57771616	      0.00000000	      0.00000000
      9.42000000	      3.01953516	      1.62443459	     -0.44890825	      0.35812862	      0.96827592	     -0.00077261	     18.88642059	     -2.76542543	     -4.08225137	     18.29966572	      0.31938942	     -7.12318038	      0.00000000	     -7.49810063	    -13.45396867	      0.29701074	    -10.52252849	     18.06343231	      0.31526637	      9.60711134	     -0.64664196	     -7.49810063	     -8.29149928	     -0.42472230	     -1.73188491	    -10.60963517	      6.98388487	    -34.71086062	     46.29484221	     64.85796094	      0.00000000	      0.00000000	     -1.96971800	     -0.23750316	    -12.70628008	     39.96019911	     65.56081035	      0.00000000	      0.00000000
      9.43000000	      3.00911205	      1.29368066	     -0.53084816	      0.36735966	      0.96943325	      0.00156473	     18.37600097	     -2.20731868	     -3.89845029	     18.65386408	      0.32557135	     -4.69729876	      0.00000000	     -7.49825497	    -12.98244743	     -0.48856961	    -10.78378688	     19.80970890	      0.34574464	      7.51719383	     -0.99354326	     -7.49825497	     -8.08791167	     -0.01426280	     -1.64026704	    -10.63087398	      7.01615358	    -35.31792790	     45.99900001	     65.04795104	      0.00000000	      0.00000000	     -2.31706461	      0.27661660	    -13.40135926	     38.80242811	     65.48269651	      0.00000000	      0.00000000
      9.44000000	      3.29611788	      1.32219059	     -0.67715567	      0.37624764	      0.97088863	      0.00394803	     17.55010942	     -2.04512310	     -3.72254511	     18.79858039	      0.32809712	     -4.66232795	      0.00000000	     -7.49826068	    -12.76077946	     -0.79150966	    -10.58501057	     21.50747669	      0.37537628	      7.35537975	     -0.99401615	     -7.49826068	     -8.31112849	     -0.12453728	     -1.27631931	    -10.69868915	      7.01765214	    -35.34721325	     45.95876724	     65.05593887	      0.00000000	      0.00000000	     -2.84213279	      0.35232910	    -13.45098820	     38.57595207	     65.46759341	      0.00000000	      0.00000000
      9.45000000	      3.34072968	      0.96371405	     -0.70956173	      0.38521906	      0.97230819	      0.00625896	     16.76824535	     -1.49119782	     -3.81153479	     18.61963466	      0.32497393	     -4.25532690	      0.00000000	     -7.49829132	    -11.97291035	     -1.59875352	    -10.62670780	     23.80544925	      0.41548347	      6.34802604	     -1.24112788	     -7.49829132	     -8.23437701	      0.31393651	     -1.07872746	    -10.88380227	      6.99901411	    -35.50284181	     45.86337185	     65.10102026	      0.00000000	      0.00000000	     -3.34967849	      0.66466465	    -13.58569970	     38.20337635	     65.45616482	      0.00000000	      0.00000000
      9.46000000	      3.50161738	      0.84560980	     -0.77296300	      0.39391179	      0.97390949	      0.00857486	     15.87346443	     -1.18314664	     -3.72618091	     18.42411306	      0.32156143	     -3.01050169	      0.00000000	     -7.49846733	    -11.19183810	     -2.13248328	    -10.69532975	     26.28263495	      0.45871852	      3.00868917	     -3.38920172	     -7.49846733	     -8.32647203	      0.39882868	     -0.81111954	    -10.84426572	      7.10888330	    -36.11885675	     45.74448290	     65.41806405	      0.00000000	      0.00000000	     -3.55058781	      1.04286715	    -14.56972239	     37.27568447	     65.50567895	      0.00000000	      0.00000000
      9.47000000	      3.65417249	      0.64223760	     -0.84233171	      0.40241710	      0.97544842	      0.01087289	     14.90941073	     -0.78897361	     -3.73746355	     18.04540459	      0.31495172	     -2.90908966	      0.00000000	     -7.49848619	    -10.21611583	     -2.75966486	    -10.60638509	     28.97966120	      0.50579050	      2.58640086	     -3.54896089	     -7.49848619	     -8.43494707	      0.59645925	     -0.49632161	    -10.92701404	      7.08753212	    -36.19263279	     45.71655639	     65.45588906	      0.00000000	      0.00000000	     -3.98402753	      1.19892355	    -14.67072993	     37.06708070	     65.51254872	      0.00000000	      0.00000000
      9.48000000	      3.56754182	      0.52874383	     -0.87913958	      0.41058803	      0.97667490	      0.01310135	     14.21513763	     -0.50071807	     -3.73695263	     17.64472915	      0.30795862	     -2.51672723	      0.00000000	     -7.49858360	     -8.80943086	     -3.26035580	    -10.31347736	     31.79530290	      0.55493272	     -0.16931097	     -5.04820140	     -7.49858360	     -8.28977146	      0.67818673	     -0.31738958	    -10.94844292	      7.14065766	    -36.46635391	     45.81203788	     65.66447382	      0.00000000	      0.00000000	     -4.44909519	      1.41511670	    -15.22005274	     36.64315642	     65.61451506	      0.00000000	      0.00000000
      9.49000000	      3.87882584	      0.43161416	     -0.95630378	      0.41882825	      0.97853368	      0.01539861	     13.00807645	     -0.24321313	     -3.87243141	     17.08776631	      0.29823778	     -2.33611613	      0.00000000	     -7.49871104	     -7.95073477	     -3.69120971	    -10.10891899	     34.33116758	      0.59919191	     -2.67805300	     -6.91772898	     -7.49871104	     -8.60122882	      0.73641228	      0.01844558	    -10.97841156	      7.15439589	    -36.76222392	     45.85909234	     65.95256663	      0.00000000	      0.00000000	     -4.75665521	      1.66081862	    -15.89598281	     36.34247439	     65.81782644	      0.00000000	      0.00000000
      9.50000000	      3.95980837	      0.26196055	     -0.94402023	      0.42672018	      0.97973299	      0.01726594	     12.09591889	      0.04777995	     -4.11821343	     16.56921989	      0.28918744	     -2.22407625	      0.00000000	     -7.49874038	     -6.50084328	     -4.19725986	     -9.66883676	     37.40036569	      0.65275952	     -3.34485487	     -7.32044487	     -7.49874038	     -8.68782831	      0.89678498	      0.32011137	    -11.03384440	      7.01527139	    -36.84911238	     45.88197137	     66.02113247	      0.00000000	      0.00000000	     -5.13920001	      1.85261570	    -16.03262433	     36.18327277	     65.87207744	      0.00000000	      0.00000000
      9.51000000	      3.98055905	      0.23404678	     -0.95807053	      0.43436056	      0.98075879	      0.01903882	     11.34228836	      0.18219689	     -4.28387401	     16.21948557	      0.28308343	     -1.83599688	      0.00000000	     -7.49895556	     -4.90763331	     -4.50587024	     -9.25555941	     40.48341027	      0.70656880	     -6.26234905	    -10.02336950	     -7.49895556	     -8.74140249	      0.91151035	      0.55195337	    -11.08178067	      6.87081306	    -36.55711311	     45.99080194	     65.96366033	      0.00000000	      0.00000000	     -5.57889635	      2.05498323	    -16.63951621	     36.30616706	     65.77250893	      0.00000000	      0.00000000
      9.52000000	      4.09809675	      0.23125536	     -0.87689451	      0.44193223	      0.98178033	      0.02051873	     10.50026437	      0.21800929	     -4.79287185	     15.87874559	      0.27713639	     -1.71267264	      0.00000000	     -7.49903002	     -3.44814026	     -4.75089056	     -8.82571360	     43.34019693	      0.75642913	     -7.62305304	    -10.96979627	     -7.49903002	     -8.91328473	      0.93814535	      0.47423729	    -11.18854296	      6.75954695	    -36.07956137	     46.67900557	     65.62678934	      0.00000000	      0.00000000	     -6.45671780	      2.12954087	    -16.72337262	     37.24624751	     65.42704346	      0.00000000	      0.00000000
      9.53000000	      3.95623474	      0.18124401	     -0.94932566	      0.44934193	      0.98245812	      0.02215320	     10.00874079	      0.37239017	     -4.84667976	     15.65943970	      0.27330878	     -1.30097070	      0.00000000	     -7.49917417	     -1.72970205	     -5.03461375	     -8.64398944	     46.08527981	      0.80433987	    -10.22236467	    -13.18484327	     -7.49917417	     -8.77318877	      0.94846630	      0.93392375	    -11.07001902	      6.50715086	    -36.12231278	     46.25550276	     65.77495532	      0.00000000	      0.00000000	     -6.35009215	      2.35144968	    -17.34274342	     36.14436553	     65.73643348	      0.00000000	      0.00000000
      9.54000000	      3.86597096	      0.14784990	     -0.93896907	      0.45662418	      0.98319738	      0.02364781	      9.42877827	      0.48323007	     -5.11309252	     15.36006892	      0.26808378	     -0.99559049	      0.00000000	     -7.49931403	     -0.11430558	     -5.27784108	     -8.44788370	     48.50165219	      0.84651352	    -12.00578104	    -14.64883933	     -7.49931403	     -8.71782938	      0.95563168	      1.15561371	    -11.03578176	      6.31156508	    -35.97031514	     46.32888339	     65.70559235	      0.00000000	      0.00000000	     -6.71047416	      2.48294564	    -17.75180084	     36.08154009	     65.85745263	      0.00000000	      0.00000000
      9.55000000	      4.02247356	      0.08588972	     -0.98441799	      0.46410419	      0.98427020	      0.02528100	      8.50300769	      0.65638013	     -5.26782937	     14.92400516	      0.26047303	     -0.75770418	      0.00000000	     -7.49934224	      1.03977066	     -5.51925633	     -8.36972961	     50.54937664	      0.88225306	    -12.17116121	    -15.46879331	     -7.49934224	     -8.92790318	      1.01686016	      1.16883226	    -11.07918661	      6.15935948	    -35.50385743	     47.21897886	     65.43322894	      0.00000000	      0.00000000	     -7.60655418	      2.52469685	    -17.64765446	     37.20478719	     65.58361247	      0.00000000	      0.00000000
      9.56000000	      4.02630280	      0.04469856	     -1.12444456	      0.47107248	      0.98503979	      0.02686078	      7.80701963	      0.82183571	     -5.18630734	     14.52458015	      0.25350175	     -0.53965996	      0.00000000	     -7.49935424	      2.38791543	     -5.76281362	     -8.45980092	     52.45734176	      0.91555333	    -12.27916849	    -16.64136628	     -7.49935424	     -8.99987443	      0.99814162	      1.49504959	    -11.11649976	      5.93005677	    -35.06711652	     47.61067743	     65.26946728	      0.00000000	      0.00000000	     -8.16894420	      2.53229967	    -17.50699335	     37.71313484	     65.42063043	      0.00000000	      0.00000000
      9.57000000	      3.91051255	      0.02552359	     -1.19383214	      0.47793743	      0.98573956	      0.02823673	      7.27216811	      0.94372395	     -5.20728359	     14.17901945	      0.24747057	     -0.24663623	      0.00000000	     -7.49937349	      3.85278709	     -5.93475831	     -8.45448599	     54.10276643	      0.94427141	    -11.91900327	    -18.11929907	     -7.49937349	     -8.93701004	      0.97548880	      1.78078340	    -11.18424277	      5.69963287	    -34.63515839	     47.88049591	     65.02199942	      0.00000000	      0.00000000	     -8.70955775	      2.55639130	    -17.34951284	     38.07329346	     65.17739784	      0.00000000	      0.00000000
      9.58000000	      3.84446951	     -0.01698713	     -1.34086706	      0.48486675	      0.98636458	      0.02969646	      6.60346749	      1.13023390	     -4.96218304	     13.66116493	      0.23843231	      0.02017134	      0.00000000	     -7.49941773	      5.18116121	     -6.12899171	     -8.54096864	     55.43986710	      0.96760822	    -11.11716680	    -19.12888477	     -7.49941773	     -8.88587227	      0.93825224	      2.24528170	    -10.80464709	      5.33191336	    -34.53979776	     46.89450641	     65.08648437	      0.00000000	      0.00000000	     -8.38443647	      2.56559897	    -17.28869315	     36.40452738	     65.37444598	      0.00000000	      0.00000000
      9.59000000	      3.91003911	      0.03734681	     -1.39109808	      0.49171372	      0.98730438	      0.03105296	      5.77808166	      1.18168963	     -4.87465882	     13.13348946	      0.22922263	      0.07159759	      0.00000000	     -7.49941981	      6.30849451	     -6.16989138	     -8.51320148	     56.31840185	      0.98294154	    -10.98507693	    -19.31761990	     -7.49941981	     -9.02337595	      0.79565005	      2.52889936	    -10.58653918	      5.23506456	    -34.54766512	     46.96350866	     65.11026789	      0.00000000	      0.00000000	     -8.65508257	      2.56371811	    -17.32377679	     36.23654212	     65.39619972	      0.00000000	      0.00000000
      9.60000000	      3.96017191	      0.14430917	     -1.52392299	      0.49844180	      0.98810506	      0.03236122	      5.02425794	      1.16557033	     -4.78439768	     12.69001560	      0.22148255	      0.12008673	      0.00000000	     -7.49942064	      7.40090634	     -6.14086957	     -8.58352574	     56.91511486	      0.99335615	    -10.87491404	    -19.47166536	     -7.49942064	     -9.13807750	      0.59299721	      2.71555553	    -10.44523915	      5.14383206	    -34.55523271	     47.03025429	     65.12083141	      0.00000000	      0.00000000	     -8.87563178	      2.59158989	    -17.34325946	     36.13427882	     65.40202519	      0.00000000	      0.00000000
      9.61000000	      3.72962332	     -0.02770528	     -1.53052227	      0.50516221	      0.98846419	      0.03351648	      4.49194814	      1.48343636	     -4.60488709	     12.08600177	      0.21094052	      0.34763613	      0.00000000	     -7.49942924	      8.85743020	     -6.42814594	     -8.49324737	     57.42550958	      1.00226422	    -10.16800343	    -19.88332205	     -7.49942924	     -8.90487793	      0.79564552	      2.79240787	    -10.19631674	      4.89459790	    -34.62211776	     47.15430091	     65.18463066	      0.00000000	      0.00000000	     -9.22139914	      2.68591551	    -17.39575358	     35.88667254	     65.47568608	      0.00000000	      0.00000000
      9.62000000	      3.78606339	      0.07050502	     -1.58113278	      0.51190853	      0.98926993	      0.03464018	      3.65051033	      1.47674850	     -4.51937081	     11.49565116	      0.20063696	      0.40394882	      0.00000000	     -7.49942655	      9.83483447	     -6.37334828	     -8.49703316	     57.42149138	      1.00219409	    -10.07362707	    -20.12733806	     -7.49942655	     -9.01522793	      0.61279882	      3.01422165	    -10.04216595	      4.84213347	    -34.61849797	     47.14094811	     65.21870005	      0.00000000	      0.00000000	     -9.44751241	      2.69736488	    -17.42442197	     35.68043697	     65.50532140	      0.00000000	      0.00000000
      9.63000000	      3.69741762	      0.05561817	     -1.60775322	      0.51861168	      0.98973885	      0.03565541	      2.96768268	      1.59619899	     -4.45545963	     10.89730660	      0.19019388	      0.99090453	      0.00000000	     -7.49948171	     10.97709990	     -6.40430642	     -8.38503251	     57.19546040	      0.99824910	     -7.99343577	    -19.49286793	     -7.49948171	     -8.95841921	      0.61568763	      3.01572643	     -9.89060743	      4.75828635	    -34.75521491	     47.59713452	     65.49009482	      0.00000000	      0.00000000	     -9.98067150	      2.83570348	    -17.77135465	     35.92300650	     65.84094682	      0.00000000	      0.00000000
      9.64000000	      3.71740844	      0.06948817	     -1.70149214	      0.52531933	      0.99027542	      0.03671047	      2.18776421	      1.65996857	     -4.48599192	     10.33906651	      0.18045075	      1.01360186	      0.00000000	     -7.49947757	     11.89722344	     -6.48730299	     -8.55596683	     56.75237675	      0.99051583	     -8.02221289	    -19.71782357	     -7.49947757	     -9.07667304	      0.55072769	      3.13799320	     -9.81462785	      4.72813825	    -34.75450228	     47.54367682	     65.51761418	      0.00000000	      0.00000000	    -10.07795282	      2.85227234	    -17.78240560	     35.75534354	     65.86659806	      0.00000000	      0.00000000
      9.65000000	      3.67127320	      0.13736528	     -1.65005031	      0.53195105	      0.99079507	      0.03762634	      1.39276358	      1.70753871	     -4.26505063	      9.57023123	      0.16703205	      1.04926550	      0.00000000	     -7.49947395	     12.86695968	     -6.38171154	     -8.42885304	     56.02016620	      0.97773635	     -7.98133426	    -19.92496081	     -7.49947395	     -9.00178087	      0.40647914	      3.41295412	     -9.56379507	      4.56667831	    -34.76803544	     47.58570170	     65.56384476	      0.00000000	      0.00000000	    -10.34295505	      2.88460075	    -17.82172127	     35.51828527	     65.90882948	      0.00000000	      0.00000000
      9.66000000	      3.55645587	      0.09208368	     -1.54646820	      0.53835942	      0.99102532	      0.03846976	      0.74169569	      1.87308086	     -4.11539931	      8.99706446	      0.15702840	      1.46589024	      0.00000000	     -7.49952905	     13.95765838	     -6.48399700	     -8.43457909	     55.29597984	      0.96509691	     -5.92399721	    -18.18157749	     -7.49952905	     -8.95727122	      0.43793704	      3.23236881	     -9.53452353	      4.57295921	    -34.90484826	     48.54516828	     65.71749516	      0.00000000	      0.00000000	    -11.04749062	      3.06586688	    -18.33367727	     36.34934284	     66.13787638	      0.00000000	      0.00000000
      9.67000000	      3.52506600	      0.01762922	     -1.51867707	      0.54501893	      0.99125026	      0.03925241	     -0.05026989	      2.02964483	     -4.20874120	      8.27644071	      0.14445114	      1.47612254	      0.00000000	     -7.49952507	     14.83897146	     -6.62229855	     -8.53445691	     54.34921756	      0.94857279	     -5.90100025	    -18.45342982	     -7.49952507	     -8.97365571	      0.47127433	      3.39769263	     -9.41076763	      4.46938202	    -34.91947361	     48.49472124	     65.76405630	      0.00000000	      0.00000000	    -11.15824393	      3.11028365	    -18.36162160	     36.13139113	     66.18588627	      0.00000000	      0.00000000
      9.68000000	      3.35282774	      0.21767581	     -1.41666468	      0.55134701	      0.99149925	      0.03989961	     -0.58004745	      1.89932272	     -3.99831686	      7.79575312	      0.13606156	      1.52209515	      0.00000000	     -7.49952680	     15.70577640	     -6.32941118	     -8.60707553	     52.67673991	      0.91938255	     -5.76509076	    -18.49865836	     -7.49952680	     -8.87257884	      0.23723149	      3.40363042	     -9.27963474	      4.34063737	    -34.94593002	     48.59869917	     65.79390625	      0.00000000	      0.00000000	    -11.31315612	      3.14418197	    -18.42734167	     36.06184424	     66.21939137	      0.00000000	      0.00000000
      9.69000000	      3.34220936	     -0.04293649	     -1.34447568	      0.55816549	      0.99102281	      0.04017771	     -1.32442110	      2.23566573	     -3.96513113	      7.23742337	      0.12631687	      1.57445514	      0.00000000	     -7.49952456	     16.59189897	     -6.54259062	     -8.46822389	     51.46216893	      0.89818429	     -5.68375314	    -18.67340668	     -7.49952456	     -8.90007779	      0.50786593	      3.57054319	     -9.17535165	      4.21437185	    -34.96772011	     48.62894743	     65.82566964	      0.00000000	      0.00000000	    -11.46489433	      3.22372859	    -18.45594950	     35.91509427	     66.25189279	      0.00000000	      0.00000000
      9.70000000	      3.19544987	     -0.05636345	     -1.24224864	      0.56473918	      0.99071025	      0.04077213	     -1.89084260	      2.33266344	     -3.94654561	      6.72663512	      0.11740193	      1.65669661	      0.00000000	     -7.49952380	     17.45003425	     -6.53344825	     -8.55550628	     49.85256860	      0.87009146	     -5.49287383	    -18.79476699	     -7.49952380	     -8.80460612	      0.45929123	      3.60019361	     -9.06304024	      4.03295966	    -35.00554217	     48.74972235	     65.85374933	      0.00000000	      0.00000000	    -11.58367988	      3.32749517	    -18.49162456	     35.82427569	     66.28157633	      0.00000000	      0.00000000
      9.71000000	      3.15608076	     -0.11894128	     -1.21189476	      0.57136986	      0.99032495	      0.04108193	     -2.43381727	      2.44031586	     -3.73371381	      6.51200680	      0.11365596	      1.92340363	      0.00000000	     -7.49953041	     18.11077992	     -6.51953616	     -8.62864150	     48.01270437	      0.83797977	     -4.99826089	    -18.71897816	     -7.49953041	     -8.82992030	      0.56877495	      3.66030192	     -8.99712203	      3.91718607	    -35.02128115	     49.10194275	     65.86991751	      0.00000000	      0.00000000	    -11.85958601	      3.43774755	    -18.62110680	     35.88220165	     66.29793140	      0.00000000	      0.00000000
      9.72000000	      3.05670720	     -0.37741207	     -1.00473321	      0.57767170	      0.98968786	      0.04151537	     -2.88090859	      2.79437512	     -3.78955899	      6.31035941	      0.11013655	      1.98684175	      0.00000000	     -7.49952931	     18.89551236	     -6.86383455	     -8.92646718	     46.29316651	      0.80796818	     -4.90737842	    -18.84217727	     -7.49952931	     -8.83985605	      0.83350380	      3.71297959	     -8.92611247	      3.87460531	    -35.01886423	     49.15006971	     65.88373717	      0.00000000	      0.00000000	    -11.85224727	      3.45300472	    -18.63916405	     35.85976101	     66.31313505	      0.00000000	      0.00000000
      9.73000000	      2.95312892	     -0.17018397	     -1.13835332	      0.58421597	      0.98928394	      0.04199066	     -3.21175633	      2.58416594	     -3.59183613	      6.32729259	      0.11043209	      2.29508819	      0.00000000	     -7.49953374	     19.37325787	     -6.75225151	     -9.77981816	     44.09805543	      0.76965626	     -4.54664518	    -18.85343789	     -7.49953374	     -8.85351024	      0.62077800	      3.84740552	     -8.75026534	      3.70081280	    -35.01587021	     49.47009650	     65.89379661	      0.00000000	      0.00000000	    -12.07195442	      3.57139027	    -18.72158315	     35.90792754	     66.31881500	      0.00000000	      0.00000000
      9.74000000	      2.97477774	     -0.28948481	     -1.11126108	      0.59085409	      0.98866680	      0.04248032	     -3.73179699	      2.76546098	     -3.51157165	      6.30601277	      0.11006069	      2.67915764	      0.00000000	     -7.49953683	     19.76301124	     -6.93994365	    -10.34866347	     41.94463472	      0.73207198	     -4.31918468	    -18.90142719	     -7.49953683	     -8.95919961	      0.65282187	      3.99119505	     -8.67827054	      3.62152452	    -34.99030378	     49.69159359	     65.91270522	      0.00000000	      0.00000000	    -12.16048575	      3.65882291	    -18.80668669	     35.94745746	     66.33772495	      0.00000000	      0.00000000
      9.75000000	      3.03174231	     -0.35483972	     -1.12932771	      0.59760858	      0.98814236	      0.04291597	     -4.24665680	      2.85444450	     -3.46985586	      6.35906392	      0.11098660	      3.23845275	      0.00000000	     -7.49954289	     19.98758170	     -7.09185641	    -11.09133794	     39.60326181	      0.69120731	     -4.14202242	    -18.77189642	     -7.49954289	     -9.11516389	      0.68848867	      4.19426492	     -8.65491734	      3.57793817	    -34.92800238	     49.98084954	     65.93116780	      0.00000000	      0.00000000	    -12.26577335	      3.73425594	    -18.94409022	     36.04995393	     66.35352161	      0.00000000	      0.00000000
      9.76000000	      2.91162751	     -0.56440550	     -1.04450694	      0.60412523	      0.98723831	      0.04314930	     -4.55451005	      3.11154538	     -3.48829800	      6.40007458	      0.11170237	      3.42378381	      0.00000000	     -7.49954310	     20.52836740	     -7.36421301	    -11.75057097	     37.43319026	      0.65333242	     -4.11549401	    -18.83445979	     -7.49954310	     -9.12501827	      0.90315195	      4.23509440	     -8.58392894	      3.47261421	    -34.92071420	     50.08536979	     65.94479259	      0.00000000	      0.00000000	    -12.22996176	      3.81558466	    -18.96753638	     36.06504780	     66.36894109	      0.00000000	      0.00000000
      9.77000000	      3.07002674	     -0.53530764	     -1.18277805	      0.61094387	      0.98672289	      0.04358639	     -5.14007802	      3.08100778	     -3.22363159	      6.50551185	      0.11354260	      5.09293583	      0.00000000	     -7.49958313	     20.44491614	     -7.42380029	    -12.99069599	     34.80213759	      0.60741189	     -4.51760096	    -17.54305111	     -7.49958313	     -9.40841137	      0.77020053	      4.57690092	     -8.78902678	      3.35577837	    -34.50984485	     50.93416960	     65.98458374	      0.00000000	      0.00000000	    -12.36124116	      4.09768655	    -19.61962202	     36.53684434	     66.41518568	      0.00000000	      0.00000000
      9.78000000	      2.98030223	     -0.93266663	     -1.02375166	      0.61765623	      0.98561626	      0.04358532	     -5.56953893	      3.55092794	     -3.21120720	      6.40585397	      0.11180324	      5.13757318	      0.00000000	     -7.49957954	     20.90928960	     -7.78452547	    -13.49649631	     32.54614437	      0.56803738	     -4.53946920	    -17.76738940	     -7.49957954	     -9.42878695	      1.24079127	      4.60442209	     -8.74435706	      3.29517549	    -34.50775077	     50.88389477	     66.01795582	      0.00000000	      0.00000000	    -12.31190054	      4.14223861	    -19.62797135	     36.40656801	     66.45502863	      0.00000000	      0.00000000
      9.79000000	      3.17557995	     -0.84092306	     -1.20957880	      0.62488587	      0.98505064	      0.04378468	     -6.33341011	      3.42778820	     -3.15047446	      6.34292088	      0.11070485	      5.51400870	      0.00000000	     -7.49958906	     20.72552040	     -7.77119746	    -14.83148588	     29.92496995	      0.52228925	     -5.23080128	    -16.83851426	     -7.49958906	     -9.70643863	      1.06411248	      4.86345510	     -8.57603541	      3.11255657	    -34.35886219	     50.98838457	     66.06060520	      0.00000000	      0.00000000	    -12.36392650	      4.36058608	    -19.77863083	     36.31595976	     66.50638120	      0.00000000	      0.00000000
      9.80000000	      3.02997655	     -1.01841657	     -1.16315397	      0.63190732	      0.98399251	      0.04376919	     -6.72269304	      3.63312884	     -3.08621349	      6.22266686	      0.10860602	      5.64327947	      0.00000000	     -7.49958917	     21.07231061	     -7.89734817	    -15.77022147	     27.56318376	      0.48106831	     -5.39542240	    -16.64644071	     -7.49958917	     -9.60163771	      1.25133028	      4.87724034	     -8.50337422	      2.96045263	    -34.34687362	     50.99449131	     66.09122802	      0.00000000	      0.00000000	    -12.35779248	      4.51786217	    -19.79544029	     36.20043834	     66.54331765	      0.00000000	      0.00000000
      9.81000000	      3.17361136	     -1.10871341	     -1.23027895	      0.63903959	      0.98323909	      0.04378839	     -7.47732196	      3.72531646	     -2.94310940	      6.04123789	      0.10543949	      6.42426918	      0.00000000	     -7.49962815	     20.96306325	     -7.91510062	    -16.91266045	     25.03985438	      0.43702790	     -5.90466948	    -13.57570553	     -7.49962815	     -9.85119582	      1.29708288	      5.07927172	     -8.51347122	      2.76574399	    -33.86548516	     51.13002086	     66.10941959	      0.00000000	      0.00000000	    -12.36314894	      4.73898727	    -20.25892063	     36.26520315	     66.58451308	      0.00000000	      0.00000000
      9.82000000	      3.24791955	     -1.25451149	     -1.22353407	      0.64618007	      0.98229851	      0.04365668	     -8.16092763	      3.87573974	     -2.86446960	      5.84492819	      0.10201324	      6.60528059	      0.00000000	     -7.49964046	     20.97985814	     -7.92578622	    -17.80907174	     22.63517354	      0.39505831	     -5.94618695	    -12.77682641	     -7.49964046	    -10.00762467	      1.44479079	      5.14781115	     -8.41191501	      2.66699615	    -33.72781403	     51.13242153	     66.11045047	      0.00000000	      0.00000000	    -12.36049489	      4.87470726	    -20.37335735	     36.22176643	     66.60608925	      0.00000000	      0.00000000
      9.83000000	      3.22667232	     -1.35404401	     -1.20351532	      0.65349332	      0.98122818	      0.04345738	     -8.71614214	      3.97233084	     -2.89216884	      5.72282789	      0.09988219	      7.19901402	      0.00000000	     -7.49972598	     21.09832706	     -7.84660233	    -18.60547261	     20.29670735	      0.35424437	     -5.81117088	    -10.26516117	     -7.49972598	    -10.03041739	      1.54154810	      5.12779538	     -8.35123507	      2.38365494	    -33.06424431	     50.98378742	     65.39249675	      0.00000000	      0.00000000	    -12.56852070	      5.12357009	    -20.69359899	     36.65435700	     65.81834659	      0.00000000	      0.00000000
      9.84000000	      3.18930496	     -1.49295823	     -1.28535187	      0.66060391	      0.98005919	      0.04320975	     -9.22706211	      4.08667743	     -2.77824459	      5.61692304	      0.09803380	      7.30206325	      0.00000000	     -7.49974951	     21.24232434	     -7.77848952	    -19.15704540	     18.04775763	      0.31499279	     -5.60971838	     -8.85681096	     -7.49974951	    -10.05852103	      1.69916001	      5.21402041	     -8.33478441	      2.20225788	    -32.64685054	     50.97935027	     65.30481203	      0.00000000	      0.00000000	    -12.48860303	      5.29120572	    -20.79720579	     36.30383800	     65.82810278	      0.00000000	      0.00000000
      9.85000000	      3.16266668	     -1.57282023	     -1.25511691	      0.66804850	      0.97890308	      0.04285892	     -9.75036082	      4.14537158	     -2.87454159	      5.55209927	      0.09690241	      7.76767685	      0.00000000	     -7.49976832	     21.36874055	     -7.56746113	    -19.29553929	     15.87509721	      0.27707272	     -5.45636358	     -7.60191701	     -7.49976832	    -10.05122457	      1.74212956	      5.33667050	     -8.27322599	      2.06153223	    -32.41403950	     50.85560764	     65.24446013	      0.00000000	      0.00000000	    -12.39518513	      5.38829954	    -20.79147375	     36.17268602	     65.85736752	      0.00000000	      0.00000000
      9.86000000	      3.12997635	     -1.72320433	     -1.30684095	      0.67561351	      0.97757683	      0.04256193	    -10.30193407	      4.27724677	     -2.71280757	      5.43319548	      0.09482715	      8.13872615	      0.00000000	     -7.49978746	     21.43765925	     -7.44024506	    -19.35731272	     13.73243505	      0.23967621	     -5.21447858	     -6.39156090	     -7.49978746	    -10.03133060	      1.88153533	      5.51313922	     -8.38978549	      1.93035197	    -32.21332551	     50.85360059	     65.08092046	      0.00000000	      0.00000000	    -12.45542793	      5.50952858	    -20.69980184	     36.44487341	     65.73547382	      0.00000000	      0.00000000
      9.87000000	      3.10405149	     -1.80893499	     -1.35268336	      0.68325083	      0.97634261	      0.04225519	    -10.76009434	      4.32425519	     -2.68921264	      5.51725681	      0.09629430	      8.51632168	      0.00000000	     -7.49979290	     21.52812211	     -7.26391633	    -19.10681806	     11.79465058	      0.20585549	     -4.90912598	     -5.74351859	     -7.49979290	    -10.01224028	      1.96068528	      5.52769193	     -8.35317689	      1.89469063	    -32.07465021	     50.82063402	     64.99643499	      0.00000000	      0.00000000	    -12.51261606	      5.58701341	    -20.61881686	     36.48447759	     65.69358579	      0.00000000	      0.00000000
      9.88000000	      3.02542899	     -1.82152501	     -1.46179992	      0.69093630	      0.97512547	      0.04197272	    -11.09262050	      4.26653010	     -2.72147221	      5.73218667	      0.10004553	      8.86977756	      0.00000000	     -7.49981783	     21.60406191	     -7.02699385	    -18.90216685	      9.91210866	      0.17299893	     -4.33236713	     -4.91479841	     -7.49981783	     -9.92646182	      1.94386183	      5.51034417	     -8.08122020	      1.90578204	    -32.09811279	     50.46874919	     64.89876400	      0.00000000	      0.00000000	    -12.44262345	      5.63319993	    -20.63930256	     36.08953319	     65.66338844	      0.00000000	      0.00000000
      9.89000000	      2.96429730	     -1.82089284	     -1.56724254	      0.69869748	      0.97391135	      0.04171468	    -11.45203917	      4.20265894	     -2.67314492	      5.93133509	      0.10352133	      9.45087133	      0.00000000	     -7.49984094	     21.65970370	     -6.79825049	    -18.45212287	      8.21434030	      0.14336728	     -4.06709428	     -4.26619664	     -7.49984094	     -9.86396681	      1.87809883	      5.68543718	     -8.11449677	      1.89105747	    -32.01724894	     50.27571730	     64.64419047	      0.00000000	      0.00000000	    -12.48398353	      5.68342449	    -20.53040822	     36.37621616	     65.37924191	      0.00000000	      0.00000000
      9.90000000	      2.88492677	     -1.81442425	     -1.70282168	      0.70649898	      0.97265443	      0.04139542	    -11.77743521	      4.11828836	     -2.51615198	      6.16794499	      0.10765095	      9.74131583	      0.00000000	     -7.49987097	     21.76489004	     -6.60291246	    -17.95073220	      6.78147130	      0.11835900	     -3.69802469	     -4.12762821	     -7.49987097	     -9.77787896	      1.83447632	      5.70776435	     -7.84353327	      1.95110954	    -32.22991855	     49.81227377	     64.64573793	      0.00000000	      0.00000000	    -12.30348841	      5.71115474	    -20.52715481	     35.72194939	     65.41565373	      0.00000000	      0.00000000
      9.91000000	      2.74970692	     -1.89023786	     -1.86865461	      0.71446573	      0.97129277	      0.04111461	    -12.07604581	      4.11525763	     -2.50440387	      6.32605954	      0.11041057	      9.77868356	      0.00000000	     -7.49987148	     21.99422673	     -6.57219306	    -17.68556294	      5.74055324	      0.10019155	     -3.64367443	     -4.10307159	     -7.49987148	     -9.60830825	      1.90071788	      5.75866449	     -7.81702653	      2.00491282	    -32.22233122	     49.81182642	     64.65578089	      0.00000000	      0.00000000	    -12.31212770	      5.73154309	    -20.52655380	     35.72188989	     65.42949900	      0.00000000	      0.00000000
      9.92000000	      2.68387983	     -1.83896001	     -2.04765049	      0.72260251	      0.97002982	      0.04081680	    -12.40805527	      3.96116085	     -2.42096634	      6.58641059	      0.11495455	      9.86804992	      0.00000000	     -7.49987221	     22.12129800	     -6.43428803	    -17.29922630	      4.93509402	      0.08613364	     -3.56648789	     -4.04926775	     -7.49987221	     -9.51715400	      1.75857011	      5.81557220	     -7.81670625	      2.07798195	    -32.21763160	     49.78926136	     64.66798790	      0.00000000	      0.00000000	    -12.36118778	      5.79074098	    -20.52211513	     35.70578333	     65.44563722	      0.00000000	      0.00000000
      9.93000000	      2.63174618	     -1.89557154	     -2.15729200	      0.73079022	      0.96863161	      0.04051372	    -12.81351749	      3.93867767	     -2.41126393	      6.75842664	      0.11795680	      9.90249714	      0.00000000	     -7.49987258	     22.39119849	     -6.48966042	    -17.22117253	      4.72266112	      0.08242599	     -3.53281465	     -4.02448526	     -7.49987258	     -9.45842659	      1.69170718	      5.83078374	     -7.81486140	      2.10778880	    -32.21299474	     49.78875304	     64.66921878	      0.00000000	      0.00000000	    -12.37280126	      5.80480437	    -20.52046190	     35.71845042	     65.44782231	      0.00000000	      0.00000000
